*******************************************************************************
Ephemeris / WWW_USER Mon Mar 24 08:21:14 2025 Pasadena, USA      / Horizons    
*******************************************************************************
Target body name: (2018 VA2)                      {source: JPL#8}
Center body name: Earth (399)                     {source: DE441}
Center-site name: Mauna Kea
*******************************************************************************
Start time      : A.D. 2018-Nov-11 03:53:00.0000 UT      
Stop  time      : A.D. 2018-Nov-11 16:18:00.0000 UT      
Step-size       : 1 minutes
*******************************************************************************
Target pole/equ : undefined
Target radii    : undefined                                                    
Center geodetic : 204.5278, 19.8260847, 4.21024   {E-lon(deg),Lat(deg),Alt(km)}
Center cylindric: 204.5278, 6006.35451, 2151.0229 {E-lon(deg),Dxy(km),Dz(km)}
Center pole/equ : ITRF93                          {East-longitude positive}
Center radii    : 6378.137, 6378.137, 6356.752 km {Equator_a, b, pole_c}       
Target primary  : Sun
Vis. interferer : MOON (R_eq= 1737.400) km        {source: DE441}
Rel. light bend : Sun                             {source: DE441}
Rel. lght bnd GM: 1.3271E+11 km^3/s^2                                          
Small-body perts: Yes                             {source: SB441-N16}
Atmos refraction: NO (AIRLESS)
RA format       : HMS
Time format     : CAL 
Calendar mode   : Mixed Julian/Gregorian
RTS-only print  : NO       
EOP file        : eop.250321.p250617                                           
EOP coverage    : DATA-BASED 1962-JAN-20 TO 2025-MAR-21. PREDICTS-> 2025-JUN-16
Units conversion: 1 au= 149597870.700 km, c= 299792.458 km/s, 1 day= 86400.0 s 
Table cut-offs 1: Elevation (-90.0deg=NO ),Airmass (>38.000=NO), Daylight (YES)
Table cut-offs 2: Solar elongation (  0.0,180.0=NO ),Local Hour Angle( 0.0=NO )
Table cut-offs 3: RA/DEC angular rate (     0.0=NO )                           
*******************************************************************************
Initial IAU76/J2000 heliocentric ecliptic osculating elements (au, days, deg.):
  EPOCH=  2458428.5 ! 2018-Nov-06.00 (TDB)         Residual RMS= .39675        
   EC= .3242664208426159   QR= .935847567628844    TP= 2458464.9625425939      
   OM= 226.0068906557846   W=  220.7446970607937   IN= 3.947636678272312       
  Equivalent ICRF heliocentric cartesian coordinates (au, au/d):
   X= 7.314601530918681E-01  Y= 6.289465658343808E-01  Z= 2.763726037901882E-01
  VX=-1.554701504922309E-02 VY= 1.109318211007817E-02 VZ= 3.366540373951610E-03
Asteroid physical parameters (km, seconds, rotational period in hours):        
   GM= n.a.                RAD= n.a.               ROTPER= n.a.                
   H= 27.08                G= .150                 B-V= n.a.                   
                           ALBEDO= n.a.            STYP= n.a.                  
*******************************************************************************
 Date__(UT)__HR:MN     R.A._________(ICRF)_________DEC
******************************************************
$$SOE
 2018-Nov-11 05:56  m  10 30 23.556042 -13 41 05.53753
 2018-Nov-11 05:57  m  10 30 25.524706 -13 41 18.18898
 2018-Nov-11 05:58  m  10 30 27.492386 -13 41 30.83738
 2018-Nov-11 05:59  m  10 30 29.459077 -13 41 43.48273
 2018-Nov-11 06:00  m  10 30 31.424776 -13 41 56.12504
 2018-Nov-11 06:01  m  10 30 33.389478 -13 42 08.76431
 2018-Nov-11 06:02  m  10 30 35.353180 -13 42 21.40055
 2018-Nov-11 06:03  m  10 30 37.315878 -13 42 34.03374
 2018-Nov-11 06:04  m  10 30 39.277569 -13 42 46.66391
 2018-Nov-11 06:05  m  10 30 41.238248 -13 42 59.29104
 2018-Nov-11 06:06  m  10 30 43.197911 -13 43 11.91515
 2018-Nov-11 06:07  m  10 30 45.156556 -13 43 24.53624
 2018-Nov-11 06:08  m  10 30 47.114178 -13 43 37.15430
 2018-Nov-11 06:09  m  10 30 49.070773 -13 43 49.76934
 2018-Nov-11 06:10  m  10 30 51.026338 -13 44 02.38137
 2018-Nov-11 06:11  m  10 30 52.980870 -13 44 14.99039
 2018-Nov-11 06:12  m  10 30 54.934363 -13 44 27.59639
 2018-Nov-11 06:13  m  10 30 56.886815 -13 44 40.19938
 2018-Nov-11 06:14  m  10 30 58.838222 -13 44 52.79937
 2018-Nov-11 06:15  m  10 31 00.788579 -13 45 05.39635
 2018-Nov-11 06:16  m  10 31 02.737885 -13 45 17.99032
 2018-Nov-11 06:17  m  10 31 04.686134 -13 45 30.58130
 2018-Nov-11 06:18  m  10 31 06.633323 -13 45 43.16927
 2018-Nov-11 06:19  m  10 31 08.579448 -13 45 55.75425
 2018-Nov-11 06:20  m  10 31 10.524506 -13 46 08.33623
 2018-Nov-11 06:21  m  10 31 12.468493 -13 46 20.91522
 2018-Nov-11 06:22  m  10 31 14.411405 -13 46 33.49122
 2018-Nov-11 06:23  m  10 31 16.353238 -13 46 46.06422
 2018-Nov-11 06:24  m  10 31 18.293990 -13 46 58.63423
 2018-Nov-11 06:25  m  10 31 20.233656 -13 47 11.20126
 2018-Nov-11 06:26  m  10 31 22.172233 -13 47 23.76530
 2018-Nov-11 06:27  m  10 31 24.109717 -13 47 36.32635
 2018-Nov-11 06:28  m  10 31 26.046104 -13 47 48.88442
 2018-Nov-11 06:29  m  10 31 27.981391 -13 48 01.43950
 2018-Nov-11 06:30  m  10 31 29.915574 -13 48 13.99160
 2018-Nov-11 06:31  m  10 31 31.848650 -13 48 26.54072
 2018-Nov-11 06:32  m  10 31 33.780614 -13 48 39.08686
 2018-Nov-11 06:33  m  10 31 35.711465 -13 48 51.63002
 2018-Nov-11 06:34  m  10 31 37.641196 -13 49 04.17020
 2018-Nov-11 06:35  m  10 31 39.569807 -13 49 16.70740
 2018-Nov-11 06:36  m  10 31 41.497291 -13 49 29.24163
 2018-Nov-11 06:37  m  10 31 43.423647 -13 49 41.77287
 2018-Nov-11 06:38  m  10 31 45.348871 -13 49 54.30114
 2018-Nov-11 06:39  m  10 31 47.272958 -13 50 06.82643
 2018-Nov-11 06:40  m  10 31 49.195906 -13 50 19.34875
 2018-Nov-11 06:41  m  10 31 51.117711 -13 50 31.86809
 2018-Nov-11 06:42  m  10 31 53.038369 -13 50 44.38446
 2018-Nov-11 06:43  m  10 31 54.957877 -13 50 56.89785
 2018-Nov-11 06:44     10 31 56.876232 -13 51 09.40827
 2018-Nov-11 06:45     10 31 58.793429 -13 51 21.91571
 2018-Nov-11 06:46     10 32 00.709466 -13 51 34.42017
 2018-Nov-11 06:47     10 32 02.624338 -13 51 46.92166
 2018-Nov-11 06:48     10 32 04.538044 -13 51 59.42018
 2018-Nov-11 06:49     10 32 06.450578 -13 52 11.91571
 2018-Nov-11 06:50     10 32 08.361937 -13 52 24.40827
 2018-Nov-11 06:51     10 32 10.272119 -13 52 36.89786
 2018-Nov-11 06:52     10 32 12.181120 -13 52 49.38447
 2018-Nov-11 06:53     10 32 14.088935 -13 53 01.86810
 2018-Nov-11 06:54     10 32 15.995563 -13 53 14.34875
 2018-Nov-11 06:55     10 32 17.900999 -13 53 26.82642
 2018-Nov-11 06:56     10 32 19.805240 -13 53 39.30111
 2018-Nov-11 06:57     10 32 21.708282 -13 53 51.77283
 2018-Nov-11 06:58     10 32 23.610123 -13 54 04.24156
 2018-Nov-11 06:59     10 32 25.510758 -13 54 16.70730
 2018-Nov-11 07:00     10 32 27.410185 -13 54 29.17007
 2018-Nov-11 07:01     10 32 29.308400 -13 54 41.62985
 2018-Nov-11 07:02     10 32 31.205400 -13 54 54.08665
 2018-Nov-11 07:03     10 32 33.101181 -13 55 06.54045
 2018-Nov-11 07:04     10 32 34.995741 -13 55 18.99127
 2018-Nov-11 07:05     10 32 36.889075 -13 55 31.43911
 2018-Nov-11 07:06     10 32 38.781180 -13 55 43.88395
 2018-Nov-11 07:07     10 32 40.672054 -13 55 56.32579
 2018-Nov-11 07:08     10 32 42.561693 -13 56 08.76465
 2018-Nov-11 07:09     10 32 44.450093 -13 56 21.20051
 2018-Nov-11 07:10     10 32 46.337251 -13 56 33.63337
 2018-Nov-11 07:11     10 32 48.223165 -13 56 46.06323
 2018-Nov-11 07:12     10 32 50.107830 -13 56 58.49009
 2018-Nov-11 07:13     10 32 51.991244 -13 57 10.91395
 2018-Nov-11 07:14     10 32 53.873404 -13 57 23.33480
 2018-Nov-11 07:15     10 32 55.754305 -13 57 35.75265
 2018-Nov-11 07:16     10 32 57.633946 -13 57 48.16749
 2018-Nov-11 07:17     10 32 59.512322 -13 58 00.57932
 2018-Nov-11 07:18     10 33 01.389430 -13 58 12.98814
 2018-Nov-11 07:19     10 33 03.265268 -13 58 25.39394
 2018-Nov-11 07:20     10 33 05.139832 -13 58 37.79672
 2018-Nov-11 07:21     10 33 07.013119 -13 58 50.19649
 2018-Nov-11 07:22     10 33 08.885126 -13 59 02.59323
 2018-Nov-11 07:23     10 33 10.755850 -13 59 14.98695
 2018-Nov-11 07:24     10 33 12.625287 -13 59 27.37764
 2018-Nov-11 07:25     10 33 14.493435 -13 59 39.76529
 2018-Nov-11 07:26     10 33 16.360290 -13 59 52.14992
 2018-Nov-11 07:27     10 33 18.225849 -14 00 04.53151
 2018-Nov-11 07:28     10 33 20.090110 -14 00 16.91006
 2018-Nov-11 07:29     10 33 21.953068 -14 00 29.28558
 2018-Nov-11 07:30     10 33 23.814722 -14 00 41.65804
 2018-Nov-11 07:31     10 33 25.675068 -14 00 54.02746
 2018-Nov-11 07:32     10 33 27.534102 -14 01 06.39383
 2018-Nov-11 07:33     10 33 29.391823 -14 01 18.75715
 2018-Nov-11 07:34     10 33 31.248226 -14 01 31.11741
 2018-Nov-11 07:35     10 33 33.103310 -14 01 43.47461
 2018-Nov-11 07:36     10 33 34.957070 -14 01 55.82874
 2018-Nov-11 07:37     10 33 36.809504 -14 02 08.17981
 2018-Nov-11 07:38     10 33 38.660609 -14 02 20.52781
 2018-Nov-11 07:39     10 33 40.510383 -14 02 32.87273
 2018-Nov-11 07:40     10 33 42.358821 -14 02 45.21458
 2018-Nov-11 07:41     10 33 44.205921 -14 02 57.55335
 2018-Nov-11 07:42     10 33 46.051680 -14 03 09.88903
 2018-Nov-11 07:43     10 33 47.896096 -14 03 22.22162
 2018-Nov-11 07:44     10 33 49.739165 -14 03 34.55112
 2018-Nov-11 07:45     10 33 51.580885 -14 03 46.87753
 2018-Nov-11 07:46     10 33 53.421252 -14 03 59.20083
 2018-Nov-11 07:47     10 33 55.260264 -14 04 11.52103
 2018-Nov-11 07:48     10 33 57.097917 -14 04 23.83812
 2018-Nov-11 07:49     10 33 58.934210 -14 04 36.15210
 2018-Nov-11 07:50     10 34 00.769139 -14 04 48.46296
 2018-Nov-11 07:51     10 34 02.602701 -14 05 00.77070
 2018-Nov-11 07:52     10 34 04.434894 -14 05 13.07531
 2018-Nov-11 07:53     10 34 06.265715 -14 05 25.37680
 2018-Nov-11 07:54     10 34 08.095160 -14 05 37.67515
 2018-Nov-11 07:55     10 34 09.923228 -14 05 49.97036
 2018-Nov-11 07:56     10 34 11.749915 -14 06 02.26243
 2018-Nov-11 07:57     10 34 13.575219 -14 06 14.55135
 2018-Nov-11 07:58     10 34 15.399137 -14 06 26.83712
